OBJECT_NAME,OBJECT_ID,EPOCH,MEAN_MOTION,ECCENTRICITY,INCLINATION,RA_OF_ASC_NODE,ARG_OF_PERICENTER,MEAN_ANOMALY,EPHEMERIS_TYPE,CLASSIFICATION_TYPE,NORAD_CAT_ID,ELEMENT_SET_NO,REV_AT_EPOCH,BSTAR,MEAN_MOTION_DOT,MEAN_MOTION_DDOT
IRIDIUM 33 DEB,1997-051QN,2026-07-10T03:34:30.029088,14.87591738,.00106807,86.3498,249.6601,150.3518,209.8315,0,U,35616,999,90682,.77544375E-3,.7078E-4,0
IRIDIUM 33 DEB,1997-051QQ,2026-06-27T13:14:56.038272,14.53076507,.00304968,86.3394,267.3674,78.4460,282.0167,0,U,35618,999,68251,.32047975E-3,.1353E-4,0
IRIDIUM 33 DEB,1997-051QS,2026-07-09T06:34:27.801696,14.42387337,.01282254,86.3856,129.2015,294.7944,63.9962,0,U,35620,999,62968,.11910291E-2,.4366E-4,0
IRIDIUM 33 DEB,1997-051QU,2026-07-07T09:09:03.977856,15.30351201,.0011189,86.1851,159.7939,153.5259,357.7055,0,U,35622,999,90490,.32410392E-2,.9634E-3,0
IRIDIUM 33 DEB,1997-051QX,2026-07-09T01:24:30.256992,14.31993373,.01015991,86.1901,291.5450,245.7922,236.3127,0,U,35625,999,69020,.71659624E-3,.2052E-4,0
IRIDIUM 33 DEB,1997-051RA,2026-07-09T23:48:16.757568,14.70731223,.00091057,86.3545,275.4759,340.3302,19.7561,0,U,35628,999,89519,.61961534E-3,.3802E-4,0
IRIDIUM 33 DEB,1997-051RD,2026-07-09T13:32:02.279328,14.47840200,.00183911,86.3668,291.0252,139.5350,280.2231,0,U,35631,999,90218,.12888933E-3,.498E-5,0
IRIDIUM 33 DEB,1997-051RJ,2026-07-05T01:26:28.154112,14.23217944,.0145471,86.1013,290.8765,349.2008,131.2650,0,U,35680,999,63605,.8156E-3,.2074E-4,0
IRIDIUM 33 DEB,1997-051RX,2026-07-09T08:28:22.936800,14.73735415,.00200995,86.3271,230.9243,189.2353,170.8498,0,U,35744,999,90401,.49329788E-3,.3256E-4,0
IRIDIUM 33 DEB,1997-051SF,2026-07-09T09:32:42.773856,14.88678996,.00131467,86.3330,233.5780,136.3402,223.8866,0,U,35797,999,90439,.93192791E-3,.8737E-4,0
IRIDIUM 33 DEB,1997-051SQ,2026-07-05T14:04:03.506880,14.59469709,.00156905,86.3420,290.2609,98.8856,261.4131,0,U,35806,999,89310,.13279112E-2,.6329E-4,0
IRIDIUM 33 DEB,1997-051ST,2026-07-01T22:18:25.871904,14.79993096,.00088392,86.3246,243.3531,259.7863,100.2362,0,U,35809,999,89779,.13074088E-2,.9921E-4,0
IRIDIUM 33 DEB,1997-051SW,2026-07-09T03:10:07.454208,14.43930744,.00172863,86.3766,329.8660,198.7775,161.2791,0,U,35846,999,74335,.36488253E-3,.1266E-4,0
IRIDIUM 33 DEB,1997-051SY,2026-07-09T23:58:15.437856,14.83671813,.00085346,86.3867,281.5821,175.2329,184.8977,0,U,35848,999,69788,.87465882E-3,.7252E-4,0
IRIDIUM 33 DEB,1997-051TA,2026-07-09T22:01:17.678208,14.83727378,.00099479,86.3459,248.6405,170.6816,189.4594,0,U,35850,999,74454,.71047719E-3,.5905E-4,0
IRIDIUM 33 DEB,1997-051TY,2026-07-07T10:41:41.992224,14.86411017,.00111506,86.3398,247.9953,178.0877,182.0392,0,U,35915,999,11151,.83030856E-3,.7362E-4,0
IRIDIUM 33 DEB,1997-051UB,2026-07-05T17:39:33.153696,14.52864470,.00251749,86.4027,347.7063,199.0553,221.6521,0,U,35918,999,88182,.11552263E-2,.4791E-4,0
IRIDIUM 33 DEB,1997-051UN,2026-07-05T19:11:20.567040,15.19668439,.00084935,86.3391,214.2681,3.7259,356.4045,0,U,35929,999,90876,.21882978E-2,.46964E-3,0
IRIDIUM 33 DEB,1997-051US,2026-07-09T15:22:33.055968,14.41971273,.00165097,86.3415,305.6689,249.2244,171.6617,0,U,36011,999,67550,.25788488E-3,.866E-5,0
IRIDIUM 33 DEB,1997-051VK,2026-07-05T18:42:07.044480,15.06128326,.00153431,86.3177,209.3863,39.8899,320.3461,0,U,36028,999,90200,.23218829E-2,.34179E-3,0
IRIDIUM 33 DEB,1997-051VM,2026-07-05T13:25:16.830048,14.47430522,.00173422,86.3205,278.6879,193.0831,166.9925,0,U,36080,999,50376,.54245203E-3,.2013E-4,0
IRIDIUM 33 DEB,1997-051VQ,2026-07-09T01:54:02.467872,14.43952449,.00241211,86.3439,304.4198,255.3376,104.5151,0,U,36083,999,88455,.26901578E-3,.941E-5,0
IRIDIUM 33 DEB,1997-051VU,2026-07-07T19:08:44.011968,14.76154496,.00298954,86.2901,204.2620,164.2649,195.9507,0,U,36390,999,69314,.41916379E-3,.2942E-4,0
IRIDIUM 33 DEB,1997-051VZ,2026-07-09T15:28:02.050752,14.46545527,.00104866,86.3807,323.0310,145.6907,214.4975,0,U,36483,999,68165,.29441963E-3,.1081E-4,0
IRIDIUM 33 DEB,1997-051WG,2026-07-08T11:47:23.020224,14.81256581,.00044138,86.3614,276.3150,88.1939,271.9788,0,U,36490,999,89555,.7435087E-3,.5819E-4,0
IRIDIUM 33 DEB,1997-051WK,2026-07-09T13:08:59.923392,14.68018215,.00093679,86.3559,278.6717,7.6546,352.4810,0,U,36493,999,77579,.55625175E-3,.3212E-4,0
IRIDIUM 33 DEB,1997-051WP,2026-07-05T15:58:19.175808,14.66421489,.0047362,86.1553,158.0137,137.6971,222.7912,0,U,36497,999,68652,.21192208E-2,.11949E-3,0
IRIDIUM 33 DEB,1997-051XG,2026-07-03T22:02:49.486848,14.28364736,.00778711,86.1710,248.1008,55.5849,305.2672,0,U,37136,999,67398,.6126666E-3,.16E-4,0
IRIDIUM 33 DEB,1997-051XH,2026-06-30T02:41:11.798304,14.52744813,.00227774,86.3500,316.5040,241.1042,118.7879,0,U,37548,999,68425,.89472118E-3,.3703E-4,0
