IRIDIUM 33 DEB          
1 35616U 97051QN  26191.14895867  .00007078  00000+0  77544-3 0  9991
2 35616  86.3498 249.6601 0010680 150.3518 209.8315 14.87591738906823
IRIDIUM 33 DEB          
1 35618U 97051QQ  26178.55203748  .00001353  00000+0  32048-3 0  9994
2 35618  86.3394 267.3674 0030496  78.4460 282.0167 14.53076507682510
IRIDIUM 33 DEB          
1 35620U 97051QS  26190.27393289  .00004366  00000+0  11910-2 0  9991
2 35620  86.3856 129.2015 0128225 294.7944  63.9962 14.42387337629681
IRIDIUM 33 DEB          
1 35622U 97051QU  26188.38129604  .00096340  00000+0  32410-2 0  9991
2 35622  86.1851 159.7939 0011189 153.5259 357.7055 15.30351201904907
IRIDIUM 33 DEB          
1 35625U 97051QX  26190.05868353  .00002052  00000+0  71660-3 0  9990
2 35625  86.1901 291.5450 0101599 245.7922 236.3127 14.31993373690204
IRIDIUM 33 DEB          
1 35628U 97051RA  26190.99186062  .00003802  00000+0  61962-3 0  9994
2 35628  86.3545 275.4759 0009105 340.3302  19.7561 14.70731223895197
IRIDIUM 33 DEB          
1 35631U 97051RD  26190.56391527  .00000498  00000+0  12889-3 0  9997
2 35631  86.3668 291.0252 0018391 139.5350 280.2231 14.47840200902184
IRIDIUM 33 DEB          
1 35680U 97051RJ  26186.06004808  .00002074  00000+0  81560-3 0  9998
2 35680  86.1013 290.8765 0145471 349.2008 131.2650 14.23217944636053
IRIDIUM 33 DEB          
1 35744U 97051RX  26190.35304325  .00003256  00000+0  49330-3 0  9995
2 35744  86.3271 230.9243 0020099 189.2353 170.8498 14.73735415904017
IRIDIUM 33 DEB          
1 35797U 97051SF  26190.39771729  .00008737  00000+0  93193-3 0  9998
2 35797  86.3330 233.5780 0013146 136.3402 223.8866 14.88678996904394
IRIDIUM 33 DEB          
1 35806U 97051SQ  26186.58615170  .00006329  00000+0  13279-2 0  9993
2 35806  86.3420 290.2609 0015690  98.8856 261.4131 14.59469709893103
IRIDIUM 33 DEB          
1 35809U 97051ST  26182.92946611  .00009921  00000+0  13074-2 0  9991
2 35809  86.3246 243.3531 0008839 259.7863 100.2362 14.79993096897796
IRIDIUM 33 DEB          
1 35846U 97051SW  26190.13203072  .00001266  00000+0  36488-3 0  9990
2 35846  86.3766 329.8660 0017286 198.7775 161.2791 14.43930744743354
IRIDIUM 33 DEB          
1 35848U 97051SY  26190.99878979  .00007252  00000+0  87466-3 0  9993
2 35848  86.3867 281.5821 0008534 175.2329 184.8977 14.83671813697888
IRIDIUM 33 DEB          
1 35850U 97051TA  26190.91756572  .00005905  00000+0  71048-3 0  9994
2 35850  86.3459 248.6405 0009947 170.6816 189.4594 14.83727378744549
IRIDIUM 33 DEB          
1 35915U 97051TY  26188.44562491  .00007362  00000+0  83031-3 0  9990
2 35915  86.3398 247.9953 0011150 178.0877 182.0392 14.86411017111514
IRIDIUM 33 DEB          
1 35918U 97051UB  26186.73580039  .00004791  00000+0  11552-2 0  9992
2 35918  86.4027 347.7063 0025174 199.0553 221.6521 14.52864470881823
IRIDIUM 33 DEB          
1 35929U 97051UN  26186.79954360  .00046964  00000+0  21883-2 0  9998
2 35929  86.3391 214.2681 0008493   3.7259 356.4045 15.19668439908763
IRIDIUM 33 DEB          
1 36011U 97051US  26190.64066037  .00000866  00000+0  25788-3 0  9995
2 36011  86.3415 305.6689 0016509 249.2244 171.6617 14.41971273675506
IRIDIUM 33 DEB          
1 36028U 97051VK  26186.77924820  .00034179  00000+0  23219-2 0  9995
2 36028  86.3177 209.3863 0015343  39.8899 320.3461 15.06128326902000
IRIDIUM 33 DEB          
1 36080U 97051VM  26186.55922257  .00002013  00000+0  54245-3 0  9997
2 36080  86.3205 278.6879 0017342 193.0831 166.9925 14.47430522503763
IRIDIUM 33 DEB          
1 36083U 97051VQ  26190.07919523  .00000941  00000+0  26902-3 0  9991
2 36083  86.3439 304.4198 0024121 255.3376 104.5151 14.43952449884557
IRIDIUM 33 DEB          
1 36390U 97051VU  26188.79773162  .00002942  00000+0  41916-3 0  9990
2 36390  86.2901 204.2620 0029895 164.2649 195.9507 14.76154496693146
IRIDIUM 33 DEB          
1 36483U 97051VZ  26190.64446818  .00001081  00000+0  29442-3 0  9998
2 36483  86.3807 323.0310 0010486 145.6907 214.4975 14.46545527681652
IRIDIUM 33 DEB          
1 36490U 97051WG  26189.49123866  .00005819  00000+0  74351-3 0  9994
2 36490  86.3614 276.3150 0004413  88.1939 271.9788 14.81256581895551
IRIDIUM 33 DEB          
1 36493U 97051WK  26190.54791578  .00003212  00000+0  55625-3 0  9994
2 36493  86.3559 278.6717 0009367   7.6546 352.4810 14.68018215775798
IRIDIUM 33 DEB          
1 36497U 97051WP  26186.66549972  .00011949  00000+0  21192-2 0  9992
2 36497  86.1553 158.0137 0047362 137.6971 222.7912 14.66421489686527
IRIDIUM 33 DEB          
1 37136U 97051XG  26184.91862832  .00001600  00000+0  61267-3 0  9993
2 37136  86.1710 248.1008 0077871  55.5849 305.2672 14.28364736673986
IRIDIUM 33 DEB          
1 37548U 97051XH  26181.11194211  .00003703  00000+0  89472-3 0  9992
2 37548  86.3500 316.5040 0022777 241.1042 118.7879 14.52744813684254
